start=new Date('2022-07-06T00:00:00.000Z').valueOf();
sats=[{"PERIAPSIS":"546.266","EPHEMERIS_TYPE":"0","OBJECT_TYPE":"PAYLOAD","RCS_SIZE":"LARGE","MEAN_ANOMALY":"276.7762","OBJECT_ID":"2021-044AR","ECCENTRICITY":"0.00013790","SITE":"AFETR","OBJECT_NAME":"STARLINK-2719","APOAPSIS":"548.176","COUNTRY_CODE":"US","LAUNCH_DATE":"2021-05-26","ARG_OF_PERICENTER":"83.3384","REF_FRAME":"TEME","MEAN_MOTION":"15.06397461","MEAN_MOTION_DDOT":"0.0000000000000","CLASSIFICATION_TYPE":"U","GP_ID":"207475762","TLE_LINE1":"1 48677U 21044AR  22186.54173262 -.00000747  00000-0 -31249-4 0  9995","TIME_SYSTEM":"UTC","INCLINATION":"53.0573","ELEMENT_SET_NO":"999","REV_AT_EPOCH":"6140","TLE_LINE2":"2 48677  53.0573  21.2425 0001379  83.3384 276.7762 15.06397461 61402","DECAY_DATE":null,"PERIOD":"95.592","CENTER_NAME":"EARTH","RA_OF_ASC_NODE":"21.2425","MEAN_ELEMENT_THEORY":"SGP4","FILE":"3508171","NORAD_CAT_ID":"48677","SEMIMAJOR_AXIS":"6925.356","MEAN_MOTION_DOT":"-0.00000747","BSTAR":"-0.00003124900000","EPOCH":"2022-07-05T13:00:05.698368"},{"SEMIMAJOR_AXIS":"6925.333","MEAN_MOTION_DOT":"0.00000478","EPOCH":"2022-07-05T12:56:08.179584","BSTAR":"0.00005097300000","MEAN_ELEMENT_THEORY":"SGP4","RA_OF_ASC_NODE":"21.2621","CENTER_NAME":"EARTH","FILE":"3508171","NORAD_CAT_ID":"48678","INCLINATION":"53.0563","ELEMENT_SET_NO":"999","REV_AT_EPOCH":"6140","TLE_LINE2":"2 48678  53.0563  21.2621 0001555  73.9562 286.1598 15.06405007 61407","DECAY_DATE":null,"PERIOD":"95.592","GP_ID":"207476512","TIME_SYSTEM":"UTC","TLE_LINE1":"1 48678U 21044AS  22186.53898356  .00000478  00000-0  50973-4 0  9997","REF_FRAME":"TEME","ARG_OF_PERICENTER":"73.9562","MEAN_MOTION":"15.06405007","MEAN_MOTION_DDOT":"0.0000000000000","CLASSIFICATION_TYPE":"U","SITE":"AFETR","OBJECT_NAME":"STARLINK-2615","APOAPSIS":"548.275","COUNTRY_CODE":"US","LAUNCH_DATE":"2021-05-26","OBJECT_TYPE":"PAYLOAD","RCS_SIZE":"LARGE","MEAN_ANOMALY":"286.1598","ECCENTRICITY":"0.00015550","OBJECT_ID":"2021-044AS","PERIAPSIS":"546.121","EPHEMERIS_TYPE":"0"},{"MEAN_MOTION":"15.06395046","CLASSIFICATION_TYPE":"U","MEAN_MOTION_DDOT":"0.0000000000000","REF_FRAME":"TEME","ARG_OF_PERICENTER":"81.5673","LAUNCH_DATE":"2021-05-26","APOAPSIS":"548.335","OBJECT_NAME":"STARLINK-2648","SITE":"AFETR","COUNTRY_CODE":"US","MEAN_ANOMALY":"278.5497","ECCENTRICITY":"0.00015970","OBJECT_ID":"2021-044AT","OBJECT_TYPE":"PAYLOAD","RCS_SIZE":"LARGE","EPHEMERIS_TYPE":"0","PERIAPSIS":"546.123","SEMIMAJOR_AXIS":"6925.364","EPOCH":"2022-07-05T12:50:51.175392","BSTAR":"-0.00004131300000","MEAN_MOTION_DOT":"-0.00000897","FILE":"3508171","NORAD_CAT_ID":"48679","MEAN_ELEMENT_THEORY":"SGP4","RA_OF_ASC_NODE":"21.2847","CENTER_NAME":"EARTH","PERIOD":"95.592","TLE_LINE2":"2 48679  53.0559  21.2847 0001597  81.5673 278.5497 15.06395046 61401","DECAY_DATE":null,"INCLINATION":"53.0559","REV_AT_EPOCH":"6140","ELEMENT_SET_NO":"999","TLE_LINE1":"1 48679U 21044AT  22186.53531453 -.00000897  00000-0 -41313-4 0  9995","TIME_SYSTEM":"UTC","GP_ID":"207477264"},{"EPOCH":"2022-07-05T12:45:32.743872","BSTAR":"-0.00003078300000","MEAN_MOTION_DOT":"-0.00000740","SEMIMAJOR_AXIS":"6925.372","NORAD_CAT_ID":"48680","FILE":"3508171","CENTER_NAME":"EARTH","RA_OF_ASC_NODE":"21.3041","MEAN_ELEMENT_THEORY":"SGP4","PERIOD":"95.593","TLE_LINE2":"2 48680  53.0554  21.3041 0001602  71.0443 289.0720 15.06392202 61408","DECAY_DATE":null,"REV_AT_EPOCH":"6140","ELEMENT_SET_NO":"999","INCLINATION":"53.0554","TLE_LINE1":"1 48680U 21044AU  22186.53162898 -.00000740  00000-0 -30783-4 0  9996","TIME_SYSTEM":"UTC","GP_ID":"207477009","CLASSIFICATION_TYPE":"U","MEAN_MOTION_DDOT":"0.0000000000000","MEAN_MOTION":"15.06392202","ARG_OF_PERICENTER":"71.0443","REF_FRAME":"TEME","LAUNCH_DATE":"2021-05-26","COUNTRY_CODE":"US","APOAPSIS":"548.347","OBJECT_NAME":"STARLINK-2649","SITE":"AFETR","ECCENTRICITY":"0.00016020","OBJECT_ID":"2021-044AU","MEAN_ANOMALY":"289.0720","RCS_SIZE":"LARGE","OBJECT_TYPE":"PAYLOAD","EPHEMERIS_TYPE":"0","PERIAPSIS":"546.128"},{"COUNTRY_CODE":"US","APOAPSIS":"548.221","OBJECT_NAME":"STARLINK-2725","SITE":"AFETR","LAUNCH_DATE":"2021-05-26","REF_FRAME":"TEME","ARG_OF_PERICENTER":"89.1244","CLASSIFICATION_TYPE":"U","MEAN_MOTION_DDOT":"0.0000000000000","MEAN_MOTION":"15.06386104","EPHEMERIS_TYPE":"0","PERIAPSIS":"546.291","RCS_SIZE":"LARGE","OBJECT_TYPE":"PAYLOAD","OBJECT_ID":"2021-044AV","ECCENTRICITY":"0.00013930","MEAN_ANOMALY":"270.9905","CENTER_NAME":"EARTH","RA_OF_ASC_NODE":"351.5266","MEAN_ELEMENT_THEORY":"SGP4","NORAD_CAT_ID":"48681","FILE":"3508171","BSTAR":"-0.00004498400000","EPOCH":"2022-07-05T12:44:15.993024","MEAN_MOTION_DOT":"-0.00000951","SEMIMAJOR_AXIS":"6925.391","GP_ID":"207476263","TLE_LINE1":"1 48681U 21044AV  22186.53074066 -.00000951  00000-0 -44984-4 0  9998","TIME_SYSTEM":"UTC","REV_AT_EPOCH":"6181","ELEMENT_SET_NO":"999","INCLINATION":"53.0567","PERIOD":"95.593","DECAY_DATE":null,"TLE_LINE2":"2 48681  53.0567 351.5266 0001393  89.1244 270.9905 15.06386104 61819"},{"REF_FRAME":"TEME","ARG_OF_PERICENTER":"56.6710","MEAN_MOTION":"15.06400741","MEAN_MOTION_DDOT":"0.0000000000000","CLASSIFICATION_TYPE":"U","SITE":"AFETR","APOAPSIS":"548.310","OBJECT_NAME":"STARLINK-2743","COUNTRY_CODE":"US","LAUNCH_DATE":"2021-05-26","OBJECT_TYPE":"PAYLOAD","RCS_SIZE":"LARGE","MEAN_ANOMALY":"252.6557","ECCENTRICITY":"0.00015870","OBJECT_ID":"2021-044AW","PERIAPSIS":"546.112","EPHEMERIS_TYPE":"0","SEMIMAJOR_AXIS":"6925.346","MEAN_MOTION_DOT":"-0.00009268","EPOCH":"2022-07-05T22:00:00.999936","BSTAR":"-0.00060410000000","MEAN_ELEMENT_THEORY":"SGP4","RA_OF_ASC_NODE":"339.7328","CENTER_NAME":"EARTH","FILE":"3508182","NORAD_CAT_ID":"48682","INCLINATION":"53.0550","ELEMENT_SET_NO":"999","REV_AT_EPOCH":"6285","TLE_LINE2":"2 48682  53.0550 339.7328 0001587  56.6710 252.6557 15.06400741 62850","DECAY_DATE":null,"PERIOD":"95.592","GP_ID":"207480634","TIME_SYSTEM":"UTC","TLE_LINE1":"1 48682U 21044AW  22186.91667824 -.00009268  00000-0 -60410-3 0  9992"},{"TIME_SYSTEM":"UTC","TLE_LINE1":"1 48683U 21044AX  22186.41735687 -.00000600  00000-0 -21362-4 0  9996","GP_ID":"207476764","TLE_LINE2":"2 48683  53.0569 341.8212 0001351  69.6628 290.4506 15.06400687 61940","DECAY_DATE":null,"PERIOD":"95.592","INCLINATION":"53.0569","ELEMENT_SET_NO":"999","REV_AT_EPOCH":"6194","FILE":"3508171","NORAD_CAT_ID":"48683","CENTER_NAME":"EARTH","RA_OF_ASC_NODE":"341.8212","MEAN_ELEMENT_THEORY":"SGP4","SEMIMAJOR_AXIS":"6925.346","MEAN_MOTION_DOT":"-0.00000600","BSTAR":"-0.00002136200000","EPOCH":"2022-07-05T10:00:59.633568","PERIAPSIS":"546.276","EPHEMERIS_TYPE":"0","MEAN_ANOMALY":"290.4506","OBJECT_ID":"2021-044AX","ECCENTRICITY":"0.00013510","OBJECT_TYPE":"PAYLOAD","RCS_SIZE":"LARGE","LAUNCH_DATE":"2021-05-26","SITE":"AFETR","OBJECT_NAME":"STARLINK-2756","APOAPSIS":"548.147","COUNTRY_CODE":"US","MEAN_MOTION":"15.06400687","MEAN_MOTION_DDOT":"0.0000000000000","CLASSIFICATION_TYPE":"U","REF_FRAME":"TEME","ARG_OF_PERICENTER":"69.6628"},{"SITE":"AFETR","OBJECT_NAME":"STARLINK-2741","APOAPSIS":"548.173","COUNTRY_CODE":"US","LAUNCH_DATE":"2021-05-26","ARG_OF_PERICENTER":"75.7229","REF_FRAME":"TEME","MEAN_MOTION":"15.06399039","MEAN_MOTION_DDOT":"0.0000000000000","CLASSIFICATION_TYPE":"U","PERIAPSIS":"546.260","EPHEMERIS_TYPE":"0","OBJECT_TYPE":"PAYLOAD","RCS_SIZE":"LARGE","MEAN_ANOMALY":"284.3913","ECCENTRICITY":"0.00013810","OBJECT_ID":"2021-044AY","MEAN_ELEMENT_THEORY":"SGP4","RA_OF_ASC_NODE":"355.2716","CENTER_NAME":"EARTH","FILE":"3508184","NORAD_CAT_ID":"48684","SEMIMAJOR_AXIS":"6925.352","MEAN_MOTION_DOT":"-0.00000535","BSTAR":"-0.00001704000000","EPOCH":"2022-07-05T20:06:48.409056","GP_ID":"207480648","TLE_LINE1":"1 48684U 21044AY  22186.83806029 -.00000535  00000-0 -17040-4 0  9997","TIME_SYSTEM":"UTC","INCLINATION":"53.0561","ELEMENT_SET_NO":"999","REV_AT_EPOCH":"6269","TLE_LINE2":"2 48684  53.0561 355.2716 0001381  75.7229 284.3913 15.06399039 62694","DECAY_DATE":null,"PERIOD":"95.592"},{"NORAD_CAT_ID":"48685","FILE":"3508171","CENTER_NAME":"EARTH","RA_OF_ASC_NODE":"341.6905","MEAN_ELEMENT_THEORY":"SGP4","MEAN_MOTION_DOT":"-0.00001053","EPOCH":"2022-07-05T10:54:05.232672","BSTAR":"-0.00005180900000","SEMIMAJOR_AXIS":"6925.371","TLE_LINE1":"1 48685U 21044AZ  22186.45422723 -.00001053  00000-0 -51809-4 0  9998","TIME_SYSTEM":"UTC","GP_ID":"207475763","TLE_LINE2":"2 48685  53.0576 341.6905 0001447  92.0327 268.0827 15.06392538 61952","DECAY_DATE":null,"PERIOD":"95.593","ELEMENT_SET_NO":"999","REV_AT_EPOCH":"6195","INCLINATION":"53.0576","LAUNCH_DATE":"2021-05-26","COUNTRY_CODE":"US","SITE":"AFETR","APOAPSIS":"548.239","OBJECT_NAME":"STARLINK-2751","MEAN_MOTION_DDOT":"0.0000000000000","CLASSIFICATION_TYPE":"U","MEAN_MOTION":"15.06392538","REF_FRAME":"TEME","ARG_OF_PERICENTER":"92.0327","PERIAPSIS":"546.234","EPHEMERIS_TYPE":"0","OBJECT_ID":"2021-044AZ","ECCENTRICITY":"0.00014470","MEAN_ANOMALY":"268.0827","RCS_SIZE":"LARGE","OBJECT_TYPE":"PAYLOAD"},{"EPOCH":"2022-07-05T17:07:40.382976","BSTAR":"-0.00002130500000","MEAN_MOTION_DOT":"-0.00000599","SEMIMAJOR_AXIS":"6925.378","NORAD_CAT_ID":"48686","FILE":"3508151","RA_OF_ASC_NODE":"345.7593","CENTER_NAME":"EARTH","MEAN_ELEMENT_THEORY":"SGP4","PERIOD":"95.593","TLE_LINE2":"2 48686  53.0575 345.7593 0001513  65.7411 294.3736 15.06390435 62816","DECAY_DATE":null,"REV_AT_EPOCH":"6281","ELEMENT_SET_NO":"999","INCLINATION":"53.0575","TIME_SYSTEM":"UTC","TLE_LINE1":"1 48686U 21044BA  22186.71366184 -.00000599  00000-0 -21305-4 0  9998","GP_ID":"207454142","CLASSIFICATION_TYPE":"U","MEAN_MOTION_DDOT":"0.0000000000000","MEAN_MOTION":"15.06390435","REF_FRAME":"TEME","ARG_OF_PERICENTER":"65.7411","LAUNCH_DATE":"2021-05-26","COUNTRY_CODE":"US","APOAPSIS":"548.291","OBJECT_NAME":"STARLINK-2629","SITE":"AFETR","OBJECT_ID":"2021-044BA","ECCENTRICITY":"0.00015130","MEAN_ANOMALY":"294.3736","RCS_SIZE":"LARGE","OBJECT_TYPE":"PAYLOAD","EPHEMERIS_TYPE":"0","PERIAPSIS":"546.195"}];
